<?xml version="1.0" encoding="UTF-8"?>
<kml xmlns="http://www.opengis.net/kml/2.2" xmlns:gx="http://www.google.com/kml/ext/2.2" xmlns:kml="http://www.opengis.net/kml/2.2" xmlns:atom="http://www.w3.org/2005/Atom">
<Document>
	<name>barcelona.kml</name>
	<StyleMap id="m_ylw-pushpin0">
		<Pair>
			<key>normal</key>
			<styleUrl>#s_ylw-pushpin</styleUrl>
		</Pair>
		<Pair>
			<key>highlight</key>
			<styleUrl>#s_ylw-pushpin_hl2</styleUrl>
		</Pair>
	</StyleMap>
	<Style id="s_ylw-pushpin">
		<IconStyle>
			<scale>1.1</scale>
			<Icon>
				<href>http://maps.google.com/mapfiles/kml/pushpin/ylw-pushpin.png</href>
			</Icon>
			<hotSpot x="20" y="2" xunits="pixels" yunits="pixels"/>
		</IconStyle>
	</Style>
	<Style id="s_ylw-pushpin_hl2">
		<IconStyle>
			<scale>1.3</scale>
			<Icon>
				<href>http://maps.google.com/mapfiles/kml/pushpin/ylw-pushpin.png</href>
			</Icon>
			<hotSpot x="20" y="2" xunits="pixels" yunits="pixels"/>
		</IconStyle>
	</Style>
	<Placemark>
		<name>barcelona</name>
		<styleUrl>#m_ylw-pushpin0</styleUrl>
		<LineString>
			<tessellate>1</tessellate>
			<coordinates>
				2.108454829075443,41.40057986740764,0 2.099569124203866,41.38232610055687,0 2.101157056017666,41.37452748133535,0 2.149613008416917,41.37312581808008,0 2.176628108659551,41.37161321520053,0 2.183051294043465,41.37966350864436,0 2.200146513526615,41.38825948935215,0 2.205402213877321,41.39316025024435,0 2.222686020413165,41.40780786082467,0 2.225983918723444,41.41344745752879,0 2.203878491571192,41.42944172708093,0 2.197664222160178,41.44185377521387,0 2.191921200707161,41.45225654948911,0 2.155465846484337,41.44150059179297,0 2.145442397151556,41.43856343815577,0 2.135250697554414,41.41958381931236,0 2.108454829075443,41.40057986740764,0 
			</coordinates>
		</LineString>
		<atom:link rel="app" href="https://www.google.com/earth/about/versions/#earth-pro" title="Google Earth Pro 7.3.6.10441"></atom:link>
	</Placemark>
</Document>
</kml>
